start=new Date('2022-10-05T00:00:00.000Z').valueOf();
sats=[{"CENTER_NAME":"EARTH","MEAN_ELEMENT_THEORY":"SGP4","APOAPSIS":"540.918","LAUNCH_DATE":"2022-03-03","ARG_OF_PERICENTER":"48.3177","CLASSIFICATION_TYPE":"U","PERIAPSIS":"538.441","INCLINATION":"53.2173","EPHEMERIS_TYPE":"0","ECCENTRICITY":"0.00017900","REF_FRAME":"TEME","RA_OF_ASC_NODE":"221.4582","OBJECT_NAME":"STARLINK-3593","RCS_SIZE":"LARGE","MEAN_MOTION_DOT":"0.00007945","TLE_LINE2":"2 51896  53.2173 221.4582 0001790  48.3177 311.7968 15.08861543 34220","PERIOD":"95.436","BSTAR":"0.00051642000000","COUNTRY_CODE":"US","NORAD_CAT_ID":"51896","ELEMENT_SET_NO":"999","MEAN_ANOMALY":"311.7968","SEMIMAJOR_AXIS":"6917.815","MEAN_MOTION":"15.08861543","EPOCH":"2022-10-04T06:24:06.894144","GP_ID":"214160619","TLE_LINE1":"1 51896U 22022AW  22277.26674646  .00007945  00000-0  51642-3 0  9994","OBJECT_ID":"2022-022AW","FILE":"3591197","MEAN_MOTION_DDOT":"0.0000000000000","DECAY_DATE":null,"TIME_SYSTEM":"UTC","REV_AT_EPOCH":"3422","SITE":"AFETR","OBJECT_TYPE":"PAYLOAD"},{"MEAN_ELEMENT_THEORY":"SGP4","APOAPSIS":"540.679","CENTER_NAME":"EARTH","ARG_OF_PERICENTER":"63.9501","LAUNCH_DATE":"2022-03-03","EPHEMERIS_TYPE":"0","PERIAPSIS":"538.744","INCLINATION":"53.2200","CLASSIFICATION_TYPE":"U","TLE_LINE2":"2 51897  53.2200 221.4899 0001398  63.9501 296.1635 15.08851073 34179","MEAN_MOTION_DOT":"0.00002745","RCS_SIZE":"LARGE","OBJECT_NAME":"STARLINK-3598","RA_OF_ASC_NODE":"221.4899","REF_FRAME":"TEME","ECCENTRICITY":"0.00013980","MEAN_ANOMALY":"296.1635","SEMIMAJOR_AXIS":"6917.847","NORAD_CAT_ID":"51897","COUNTRY_CODE":"US","BSTAR":"0.00019046000000","ELEMENT_SET_NO":"999","PERIOD":"95.437","EPOCH":"2022-10-04T06:17:25.521216","GP_ID":"214160354","MEAN_MOTION":"15.08851073","FILE":"3591197","OBJECT_ID":"2022-022AX","TLE_LINE1":"1 51897U 22022AX  22277.26210094  .00002745  00000-0  19046-3 0  9993","OBJECT_TYPE":"PAYLOAD","SITE":"AFETR","REV_AT_EPOCH":"3417","TIME_SYSTEM":"UTC","DECAY_DATE":null,"MEAN_MOTION_DDOT":"0.0000000000000"},{"EPHEMERIS_TYPE":"0","INCLINATION":"53.2180","PERIAPSIS":"538.574","CLASSIFICATION_TYPE":"U","OBJECT_NAME":"STARLINK-3597","RCS_SIZE":"LARGE","MEAN_MOTION_DOT":"0.00007437","RA_OF_ASC_NODE":"221.5045","TLE_LINE2":"2 51898  53.2180 221.5045 0001607  61.8119 298.3035 15.08859548 34225","ECCENTRICITY":"0.00016070","REF_FRAME":"TEME","CENTER_NAME":"EARTH","APOAPSIS":"540.797","MEAN_ELEMENT_THEORY":"SGP4","LAUNCH_DATE":"2022-03-03","ARG_OF_PERICENTER":"61.8119","OBJECT_ID":"2022-022AY","TLE_LINE1":"1 51898U 22022AY  22277.25842367  .00007437  00000-0  48460-3 0  9992","FILE":"3591197","SITE":"AFETR","OBJECT_TYPE":"PAYLOAD","TIME_SYSTEM":"UTC","DECAY_DATE":null,"MEAN_MOTION_DDOT":"0.0000000000000","REV_AT_EPOCH":"3422","SEMIMAJOR_AXIS":"6917.821","MEAN_ANOMALY":"298.3035","PERIOD":"95.436","BSTAR":"0.00048460000000","COUNTRY_CODE":"US","NORAD_CAT_ID":"51898","ELEMENT_SET_NO":"999","GP_ID":"214159618","EPOCH":"2022-10-04T06:12:07.805088","MEAN_MOTION":"15.08859548"},{"TLE_LINE2":"2 51956  53.2157 249.3196 0002212  43.4187 316.6979 15.08850139 33286","RA_OF_ASC_NODE":"249.3196","RCS_SIZE":"LARGE","MEAN_MOTION_DOT":"0.00002963","OBJECT_NAME":"STARLINK-3700","REF_FRAME":"TEME","ECCENTRICITY":"0.00022120","EPHEMERIS_TYPE":"0","CLASSIFICATION_TYPE":"U","PERIAPSIS":"538.184","INCLINATION":"53.2157","ARG_OF_PERICENTER":"43.4187","LAUNCH_DATE":"2022-03-09","APOAPSIS":"541.245","MEAN_ELEMENT_THEORY":"SGP4","CENTER_NAME":"EARTH","OBJECT_TYPE":"PAYLOAD","SITE":"AFETR","REV_AT_EPOCH":"3328","MEAN_MOTION_DDOT":"0.0000000000000","TIME_SYSTEM":"UTC","DECAY_DATE":null,"FILE":"3591503","TLE_LINE1":"1 51956U 22025A   22277.74510716  .00002963  00000-0  20415-3 0  9993","OBJECT_ID":"2022-025A","GP_ID":"214168392","EPOCH":"2022-10-04T17:52:57.258624","MEAN_MOTION":"15.08850139","SEMIMAJOR_AXIS":"6917.849","MEAN_ANOMALY":"316.6979","COUNTRY_CODE":"US","NORAD_CAT_ID":"51956","BSTAR":"0.00020415000000","ELEMENT_SET_NO":"999","PERIOD":"95.437"},{"RCS_SIZE":"LARGE","OBJECT_NAME":"STARLINK-3694","MEAN_MOTION_DOT":"0.00007679","RA_OF_ASC_NODE":"249.6956","TLE_LINE2":"2 51957  53.2159 249.6956 0001713  51.5643 308.5503 15.08845253 32180","ECCENTRICITY":"0.00017130","REF_FRAME":"TEME","EPHEMERIS_TYPE":"0","PERIAPSIS":"538.544","INCLINATION":"53.2159","CLASSIFICATION_TYPE":"U","LAUNCH_DATE":"2022-03-09","ARG_OF_PERICENTER":"51.5643","CENTER_NAME":"EARTH","MEAN_ELEMENT_THEORY":"SGP4","APOAPSIS":"540.914","SITE":"AFETR","OBJECT_TYPE":"PAYLOAD","TIME_SYSTEM":"UTC","DECAY_DATE":null,"MEAN_MOTION_DDOT":"0.0000000000000","REV_AT_EPOCH":"3218","OBJECT_ID":"2022-025B","TLE_LINE1":"1 51957U 22025B   22277.66048577  .00007679  00000-0  49997-3 0  9991","FILE":"3591597","EPOCH":"2022-10-04T15:51:05.970528","GP_ID":"214192759","MEAN_MOTION":"15.08845253","SEMIMAJOR_AXIS":"6917.864","MEAN_ANOMALY":"308.5503","PERIOD":"95.437","NORAD_CAT_ID":"51957","COUNTRY_CODE":"US","BSTAR":"0.00049997000000","ELEMENT_SET_NO":"999"},{"LAUNCH_DATE":"2022-03-09","ARG_OF_PERICENTER":"44.9972","CENTER_NAME":"EARTH","MEAN_ELEMENT_THEORY":"SGP4","APOAPSIS":"541.016","ECCENTRICITY":"0.00018820","REF_FRAME":"TEME","RA_OF_ASC_NODE":"249.3447","MEAN_MOTION_DOT":"0.00001937","RCS_SIZE":"LARGE","OBJECT_NAME":"STARLINK-3692","TLE_LINE2":"2 51958  53.2142 249.3447 0001882  44.9972 315.1172 15.08850263 32197","CLASSIFICATION_TYPE":"U","INCLINATION":"53.2142","PERIAPSIS":"538.412","EPHEMERIS_TYPE":"0","MEAN_MOTION":"15.08850263","EPOCH":"2022-10-04T17:47:39.182208","GP_ID":"214193510","PERIOD":"95.437","COUNTRY_CODE":"US","BSTAR":"0.00013976000000","NORAD_CAT_ID":"51958","ELEMENT_SET_NO":"999","MEAN_ANOMALY":"315.1172","SEMIMAJOR_AXIS":"6917.849","MEAN_MOTION_DDOT":"0.0000000000000","TIME_SYSTEM":"UTC","DECAY_DATE":null,"REV_AT_EPOCH":"3219","SITE":"AFETR","OBJECT_TYPE":"PAYLOAD","TLE_LINE1":"1 51958U 22025C   22277.74142572  .00001937  00000-0  13976-3 0  9990","OBJECT_ID":"2022-025C","FILE":"3591597"},{"MEAN_MOTION":"15.08846788","GP_ID":"214191758","EPOCH":"2022-10-04T15:56:22.007904","COUNTRY_CODE":"US","BSTAR":"0.00007829600000","NORAD_CAT_ID":"51959","ELEMENT_SET_NO":"999","PERIOD":"95.437","SEMIMAJOR_AXIS":"6917.860","MEAN_ANOMALY":"317.8883","REV_AT_EPOCH":"3218","MEAN_MOTION_DDOT":"0.0000000000000","DECAY_DATE":null,"TIME_SYSTEM":"UTC","OBJECT_TYPE":"PAYLOAD","SITE":"AFETR","FILE":"3591597","TLE_LINE1":"1 51959U 22025D   22277.66414361  .00000958  00000-0  78296-4 0  9999","OBJECT_ID":"2022-025D","ARG_OF_PERICENTER":"42.2257","LAUNCH_DATE":"2022-03-09","MEAN_ELEMENT_THEORY":"SGP4","APOAPSIS":"541.049","CENTER_NAME":"EARTH","REF_FRAME":"TEME","ECCENTRICITY":"0.00019150","TLE_LINE2":"2 51959  53.2170 249.6757 0001915  42.2257 317.8883 15.08846788 32184","RA_OF_ASC_NODE":"249.6757","RCS_SIZE":"LARGE","MEAN_MOTION_DOT":"0.00000958","OBJECT_NAME":"STARLINK-3704","CLASSIFICATION_TYPE":"U","INCLINATION":"53.2170","PERIAPSIS":"538.400","EPHEMERIS_TYPE":"0"},{"ARG_OF_PERICENTER":"42.6807","LAUNCH_DATE":"2022-03-09","MEAN_ELEMENT_THEORY":"SGP4","APOAPSIS":"541.104","CENTER_NAME":"EARTH","REF_FRAME":"TEME","ECCENTRICITY":"0.00019890","TLE_LINE2":"2 51960  53.2156 249.7090 0001989  42.6807 317.4339 15.08845575 32182","RCS_SIZE":"LARGE","MEAN_MOTION_DOT":"0.00002229","OBJECT_NAME":"STARLINK-3691","RA_OF_ASC_NODE":"249.7090","INCLINATION":"53.2156","PERIAPSIS":"538.352","CLASSIFICATION_TYPE":"U","EPHEMERIS_TYPE":"0","MEAN_MOTION":"15.08845575","GP_ID":"214192008","EPOCH":"2022-10-04T15:45:46.531584","COUNTRY_CODE":"US","NORAD_CAT_ID":"51960","BSTAR":"0.00015811000000","ELEMENT_SET_NO":"999","PERIOD":"95.437","SEMIMAJOR_AXIS":"6917.863","MEAN_ANOMALY":"317.4339","REV_AT_EPOCH":"3218","DECAY_DATE":null,"TIME_SYSTEM":"UTC","MEAN_MOTION_DDOT":"0.0000000000000","OBJECT_TYPE":"PAYLOAD","SITE":"AFETR","FILE":"3591597","OBJECT_ID":"2022-025E","TLE_LINE1":"1 51960U 22025E   22277.65678856  .00002229  00000-0  15811-3 0  9997"},{"OBJECT_ID":"2022-025F","TLE_LINE1":"1 51961U 22025F   22277.34030379  .00003868  00000-0  26090-3 0  9997","FILE":"3591197","SITE":"AFETR","OBJECT_TYPE":"PAYLOAD","TIME_SYSTEM":"UTC","DECAY_DATE":null,"MEAN_MOTION_DDOT":"0.0000000000000","REV_AT_EPOCH":"3213","SEMIMAJOR_AXIS":"6917.843","MEAN_ANOMALY":"322.9459","PERIOD":"95.437","COUNTRY_CODE":"US","BSTAR":"0.00026090000000","NORAD_CAT_ID":"51961","ELEMENT_SET_NO":"999","GP_ID":"214159871","EPOCH":"2022-10-04T08:10:02.247456","MEAN_MOTION":"15.08852284","EPHEMERIS_TYPE":"0","INCLINATION":"53.2176","PERIAPSIS":"538.201","CLASSIFICATION_TYPE":"U","RCS_SIZE":"LARGE","OBJECT_NAME":"STARLINK-3689","MEAN_MOTION_DOT":"0.00003868","RA_OF_ASC_NODE":"251.1423","TLE_LINE2":"2 51961  53.2176 251.1423 0002178  37.1683 322.9459 15.08852284 32138","ECCENTRICITY":"0.00021780","REF_FRAME":"TEME","CENTER_NAME":"EARTH","APOAPSIS":"541.215","MEAN_ELEMENT_THEORY":"SGP4","LAUNCH_DATE":"2022-03-09","ARG_OF_PERICENTER":"37.1683"},{"EPHEMERIS_TYPE":"0","PERIAPSIS":"538.211","INCLINATION":"53.2173","CLASSIFICATION_TYPE":"U","MEAN_MOTION_DOT":"0.00005202","RCS_SIZE":"LARGE","OBJECT_NAME":"STARLINK-3697","RA_OF_ASC_NODE":"249.7459","TLE_LINE2":"2 51962  53.2173 249.7459 0002135  41.3077 318.8076 15.08858807 32186","ECCENTRICITY":"0.00021350","REF_FRAME":"TEME","CENTER_NAME":"EARTH","MEAN_ELEMENT_THEORY":"SGP4","APOAPSIS":"541.165","LAUNCH_DATE":"2022-03-09","ARG_OF_PERICENTER":"41.3077","OBJECT_ID":"2022-025G","TLE_LINE1":"1 51962U 22025G   22277.65038599  .00005202  00000-0  34455-3 0  9992","FILE":"3591597","SITE":"AFETR","OBJECT_TYPE":"PAYLOAD","DECAY_DATE":null,"TIME_SYSTEM":"UTC","MEAN_MOTION_DDOT":"0.0000000000000","REV_AT_EPOCH":"3218","MEAN_ANOMALY":"318.8076","SEMIMAJOR_AXIS":"6917.823","PERIOD":"95.436","COUNTRY_CODE":"US","BSTAR":"0.00034455000000","ELEMENT_SET_NO":"999","NORAD_CAT_ID":"51962","GP_ID":"214193010","EPOCH":"2022-10-04T15:36:33.349536","MEAN_MOTION":"15.08858807"}];
